NORAD_CAT_ID,OBJECT_NAME,OBJECT_TYPE,EPOCH,MEAN_MOTION,ECCENTRICITY,INCLINATION,RA_OF_ASC_NODE,ARG_OF_PERICENTER,MEAN_ANOMALY,BSTAR,MEAN_MOTION_DOT,MEAN_MOTION_DDOT,TLE_LINE0,TLE_LINE1,TLE_LINE2,SEMIMAJOR_AXIS,PERIOD,APOGEE,PERIGEE,DECAYED
52345.0,STARLINK-3852,PAYLOAD,2023-09-14 13:49:41,15.07190786,0.0001382,53.2176,311.3998,94.9744,265.1405,-0.00012376,-2.166e-05,0.0,0 STARLINK-3852,1 52345U 22045Q   23257.57617007 -.00002166  00000-0 -12376-3 0  9993,2 52345  53.2176 311.3998 0001382  94.9744 265.1405 15.07190786 78822,6922.926,95.542,545.748,543.834,0.0
52345.0,STARLINK-3852,PAYLOAD,2023-09-15 04:09:05,15.07198023,0.000136,53.2178,308.727,98.5002,261.6143,-2.1969e-05,-6.18e-06,0.0,0 STARLINK-3852,1 52345U 22045Q   23258.17297456 -.00000618  00000-0 -21969-4 0  9991,2 52345  53.2178 308.7270 0001360  98.5002 261.6143 15.07198023 78912,6922.904,95.542,545.71,543.827,0.0
52345.0,STARLINK-3852,PAYLOAD,2023-09-15 08:55:32,15.07200054,0.0001403,53.2164,307.8367,97.6942,262.4209,6.0392e-05,6.36e-06,0.0,0 STARLINK-3852,1 52345U 22045Q   23258.37190761  .00000636  00000-0  60392-4 0  9995,2 52345  53.2164 307.8367 0001403  97.6942 262.4209 15.07200054 78948,6922.898,95.541,545.734,543.791,0.0
52345.0,STARLINK-3852,PAYLOAD,2023-09-16 10:23:22,15.07221625,0.0001392,53.2164,303.0865,99.9547,260.1601,0.00060464,8.936e-05,0.0,0 STARLINK-3852,1 52345U 22045Q   23259.43289676  .00008936  00000-0  60464-3 0  9997,2 52345  53.2164 303.0865 0001392  99.9547 260.1601 15.07221625 79109,6922.832,95.54,545.66,543.733,0.0
52345.0,STARLINK-3852,PAYLOAD,2023-09-16 13:34:20,15.07224953,0.0001375,53.2161,302.4924,99.6198,260.4949,0.00058721,8.671e-05,0.0,0 STARLINK-3852,1 52345U 22045Q   23259.56551846  .00008671  00000-0  58721-3 0  9991,2 52345  53.2161 302.4924 0001375  99.6198 260.4949 15.07224953 79122,6922.821,95.54,545.638,543.734,0.0
52345.0,STARLINK-3852,PAYLOAD,2023-09-17 02:18:15,15.0721662,0.000147,53.2166,300.1166,87.1984,272.9176,0.00016825,2.279e-05,0.0,0 STARLINK-3852,1 52345U 22045Q   23260.09601260  .00002279  00000-0  16825-3 0  9994,2 52345  53.2166 300.1166 0001470  87.1984 272.9176 15.07216620 79202,6922.847,95.54,545.73,543.694,0.0
52345.0,STARLINK-3852,PAYLOAD,2023-09-17 11:51:11,15.07217942,0.0001441,53.2166,298.3341,85.4859,274.6297,0.00020787,2.883e-05,0.0,0 STARLINK-3852,1 52345U 22045Q   23260.49388246  .00002883  00000-0  20787-3 0  9997,2 52345  53.2166 298.3341 0001441  85.4859 274.6297 15.07217942 79262,6922.843,95.54,545.705,543.71,0.0
52345.0,STARLINK-3852,PAYLOAD,2023-09-18 02:10:35,15.07215227,0.0001498,53.2164,295.6626,88.4119,271.7044,9.1846e-05,1.115e-05,0.0,0 STARLINK-3852,1 52345U 22045Q   23261.09068848  .00001115  00000-0  91846-4 0  9999,2 52345  53.2164 295.6626 0001498  88.4119 271.7044 15.07215227 79352,6922.851,95.54,545.753,543.679,0.0
52345.0,STARLINK-3852,PAYLOAD,2023-09-18 10:08:02,15.07214634,0.0001496,53.2165,294.1778,87.6756,272.4407,6.7084e-05,7.38e-06,0.0,0 STARLINK-3852,1 52345U 22045Q   23261.42224660  .00000738  00000-0  67084-4 0  9999,2 52345  53.2165 294.1778 0001496  87.6756 272.4407 15.07214634 79409,6922.853,95.54,545.754,543.682,0.0
52345.0,STARLINK-3852,PAYLOAD,2023-09-18 19:40:58,15.07210629,0.0001527,53.2163,292.3959,83.5112,276.6053,3.3737e-05,2.3e-06,0.0,0 STARLINK-3852,1 52345U 22045Q   23261.82011908  .00000230  00000-0  33737-4 0  9997,2 52345  53.2163 292.3959 0001527  83.5112 276.6053 15.07210629 79463,6922.865,95.541,545.787,543.673,0.0
52345.0,STARLINK-3852,PAYLOAD,2023-09-19 02:02:55,15.07210735,0.0001619,53.2157,291.2074,86.6125,273.5051,6.4449e-05,6.98e-06,0.0,0 STARLINK-3852,1 52345U 22045Q   23262.08536604  .00000698  00000-0  64449-4 0  9993,2 52345  53.2157 291.2074 0001619  86.6125 273.5051 15.07210735 79509,6922.865,95.541,545.851,543.609,0.0
52345.0,STARLINK-3852,PAYLOAD,2023-09-20 05:06:14,15.07201352,0.0001617,53.2156,286.1608,79.6067,280.5106,-1.1752e-05,-4.62e-06,0.0,0 STARLINK-3852,1 52345U 22045Q   23263.21267241 -.00000462  00000-0 -11752-4 0  9997,2 52345  53.2156 286.1608 0001617  79.6067 280.5106 15.07201352 79671,6922.894,95.541,545.878,543.639,0.0
52345.0,STARLINK-3852,PAYLOAD,2023-09-20 08:17:13,15.07203344,0.0001501,53.2168,285.5659,83.9401,276.1761,-3.6361e-05,-8.37e-06,0.0,0 STARLINK-3852,1 52345U 22045Q   23263.34529745 -.00000837  00000-0 -36361-4 0  9990,2 52345  53.2168 285.5659 0001501  83.9401 276.1761 15.07203344 79698,6922.888,95.541,545.792,543.713,0.0
52345.0,STARLINK-3852,PAYLOAD,2023-09-21 01:47:28,15.07285843,0.0002124,53.2178,282.2998,74.5518,285.5708,0.00063496,9.416e-05,0.0,0 STARLINK-3852,1 52345U 22045Q   23264.07463359  .00009416  00000-0  63496-3 0  9997,2 52345  53.2178 282.2998 0002124  74.5518 285.5708 15.07285843 79808,6922.635,95.536,545.97,543.03,0.0
52345.0,STARLINK-3852,PAYLOAD,2023-09-21 06:33:37,15.07520365,0.0002054,53.2162,281.4061,120.8013,239.3181,0.0026176,0.00040132,0.0,0 STARLINK-3852,1 52345U 22045Q   23264.27334494  .00040132  00000-0  26176-2 0  9999,2 52345  53.2162 281.4061 0002054 120.8013 239.3181 15.07520365 79836,6921.917,95.521,545.204,542.36,0.0
52345.0,STARLINK-3852,PAYLOAD,2023-09-21 17:41:39,15.07695365,0.0001539,53.2172,279.3266,124.9592,235.1544,0.0037863,0.00058608,0.0,0 STARLINK-3852,1 52345U 22045Q   23264.73726624  .00058608  00000-0  37863-2 0  9992,2 52345  53.2172 279.3266 0001539 124.9592 235.1544 15.07695365 79902,6921.381,95.51,544.311,542.181,0.0
52345.0,STARLINK-3852,PAYLOAD,2023-09-22 04:49:22,15.08066517,0.0001439,53.2169,277.2448,98.1566,261.9589,0.006421,0.0010121,0.0,0 STARLINK-3852,1 52345U 22045Q   23265.20095674  .00101210  00000-0  64210-2 0  9993,2 52345  53.2169 277.2448 0001439  98.1566 261.9589 15.08066517 79974,6920.246,95.487,543.106,541.115,0.0
52345.0,STARLINK-3852,PAYLOAD,2023-09-22 14:00:01,15.08823826,0.0001536,53.2155,275.5323,86.6229,190.0777,-0.0004012,-6.665e-05,0.0,0 STARLINK-3852,1 52345U 22045Q   23265.58334491 -.00006665  00000-0 -40120-3 0  9992,2 52345  53.2155 275.5323 0001536  86.6229 190.0777 15.08823826 80021,6917.93,95.439,540.857,538.732,0.0
52345.0,STARLINK-3852,PAYLOAD,2023-09-22 22:00:00,15.08815361,0.0001561,53.2155,274.0344,96.7319,191.5685,0.0036727,0.0005861,0.0,0 STARLINK-3852,1 52345U 22045Q   23265.91667824  .00058610  00000-0  36727-2 0  9990,2 52345  53.2155 274.0344 0001561  96.7319 191.5685 15.08815361 80072,6917.956,95.439,540.901,538.741,0.0
52345.0,STARLINK-3852,PAYLOAD,2023-09-23 14:00:01,15.08829319,0.0001417,53.2149,271.0432,86.543,224.9578,-0.00051035,-8.399e-05,0.0,0 STARLINK-3852,1 52345U 22045Q   23266.58334491 -.00008399  00000-0 -51035-3 0  9996,2 52345  53.2149 271.0432 0001417  86.5430 224.9578 15.08829319 80172,6917.913,95.438,540.758,538.798,0.0
52345.0,STARLINK-3852,PAYLOAD,2023-09-24 14:00:01,15.0883466,0.0001415,53.2143,266.5541,82.7265,263.5273,-0.00036908,-6.156e-05,0.0,0 STARLINK-3852,1 52345U 22045Q   23267.58334491 -.00006156  00000-0 -36908-3 0  9998,2 52345  53.2143 266.5541 0001415  82.7265 263.5273 15.08834660 80321,6917.897,95.438,540.741,538.783,0.0
52345.0,STARLINK-3852,PAYLOAD,2023-09-24 22:00:00,15.08812878,0.0001458,53.2143,265.0563,92.6278,265.2169,0.0037445,0.00059767,0.0,0 STARLINK-3852,1 52345U 22045Q   23267.91667824  .00059767  00000-0  37445-2 0  9994,2 52345  53.2143 265.0563 0001458  92.6278 265.2169 15.08812878  5855,6917.963,95.439,540.837,538.82,0.0
52345.0,STARLINK-3852,PAYLOAD,2023-09-25 14:00:01,15.08851224,0.0001465,53.2141,262.0646,88.8291,292.2821,4.4629e-06,-2.17e-06,0.0,0 STARLINK-3852,1 52345U 22045Q   23268.58335648 -.00000217  00000-0  44629-5 0  9996,2 52345  53.2141 262.0646 0001465  88.8291 292.2821 15.08851224 80487,6917.846,95.437,540.725,538.698,0.0
52345.0,STARLINK-3852,PAYLOAD,2023-09-26 00:00:00,15.0887061,0.0001492,53.2144,260.1928,97.4036,28.1496,0.0011363,0.00017858,0.0,0 STARLINK-3852,1 52345U 22045Q   23269.00001157  .00017858  00000-0  11363-2 0  9993,2 52345  53.2144 260.1928 0001492  97.4036  28.1496 15.08870610  5813,6917.787,95.436,540.684,538.62,0.0
52345.0,STARLINK-3852,PAYLOAD,2023-09-26 08:59:05,15.08862944,0.0001624,53.2155,258.5123,93.1984,266.9194,0.00046308,7.094e-05,0.0,0 STARLINK-3852,1 52345U 22045Q   23269.37436361  .00007094  00000-0  46308-3 0  9991,2 52345  53.2155 258.5123 0001624  93.1984 266.9194 15.08862944 80603,6917.81,95.436,540.799,538.552,0.0
52345.0,STARLINK-3852,PAYLOAD,2023-09-27 04:03:43,15.08833424,0.0001418,53.2156,254.944,93.2232,266.8923,-0.0001423,-2.552e-05,0.0,0 STARLINK-3852,1 52345U 22045Q   23270.16925429 -.00002552  00000-0 -14230-3 0  9993,2 52345  53.2156 254.9440 0001418  93.2232 266.8923 15.08833424 80727,6917.9,95.438,540.746,538.785,0.0
52345.0,STARLINK-3852,PAYLOAD,2023-09-27 05:39:06,15.0883428,0.000139,53.2156,254.6465,89.6587,270.4565,-9.575e-05,-1.811e-05,0.0,0 STARLINK-3852,1 52345U 22045Q   23270.23549454 -.00001811  00000-0 -95750-4 0  9995,2 52345  53.2156 254.6465 0001390  89.6587 270.4565 15.08834280 80737,6917.898,95.438,540.724,538.801,0.0
52345.0,STARLINK-3852,PAYLOAD,2023-09-28 05:29:55,15.08820134,0.0001367,53.216,250.1858,101.9852,258.1293,-0.0001725,-3.031e-05,0.0,0 STARLINK-3852,1 52345U 22045Q   23271.22911088 -.00003031  00000-0 -17250-3 0  9995,2 52345  53.2160 250.1858 0001367 101.9852 258.1293 15.08820134 80886,6917.941,95.439,540.752,538.86,0.0
52345.0,STARLINK-3852,PAYLOAD,2023-09-28 08:40:41,15.08824328,0.0001401,53.2159,249.5899,106.7637,253.3509,-0.00015826,-2.805e-05,0.0,0 STARLINK-3852,1 52345U 22045Q   23271.36159146 -.00002805  00000-0 -15826-3 0  9994,2 52345  53.2159 249.5899 0001401 106.7637 253.3509 15.08824328 80903,6917.928,95.439,540.762,538.824,0.0
52345.0,STARLINK-3852,PAYLOAD,2023-09-28 22:59:09,15.08833851,0.0001231,53.2165,246.9153,83.1456,276.9676,0.00028082,4.183e-05,0.0,0 STARLINK-3852,1 52345U 22045Q   23271.95775353  .00004183  00000-0  28082-3 0  9990,2 52345  53.2165 246.9153 0001231  83.1456 276.9676 15.08833851 80998,6917.899,95.438,540.616,538.913,0.0
